D-STAR ONE (SPARROW)    
1 43881U 18111F   26068.74049393  .00072664  00000+0  10830-2 0  9995
2 43881  97.6111   1.8771 0004130  38.9805 321.1745 15.54846145395830
STARLINK-1284           
1 45390U 20019AG  26068.54950551  .00094801  00000+0  15497-2 0  9998
2 45390  53.0484 131.6640 0003713  17.3458 342.7677 15.51780095330205
